NORAD_CAT_ID,OBJECT_NAME,OBJECT_TYPE,EPOCH,MEAN_MOTION,ECCENTRICITY,INCLINATION,RA_OF_ASC_NODE,ARG_OF_PERICENTER,MEAN_ANOMALY,BSTAR,MEAN_MOTION_DOT,MEAN_MOTION_DDOT,TLE_LINE0,TLE_LINE1,TLE_LINE2,SEMIMAJOR_AXIS,PERIOD,APOGEE,PERIGEE,DECAYED
52603.0,STARLINK-4016,PAYLOAD,2022-10-22 01:35:02,15.08825487,0.0002137,53.2185,61.5616,48.8131,311.3045,-0.00010137,-1.901e-05,0.0,0 STARLINK-4016,1 52603U 22052F   22295.06599568 -.00001901  00000-0 -10137-3 0  9993,2 52603  53.2185  61.5616 0002137  48.8131 311.3045 15.08825487 24848,6917.925,95.438,541.268,538.311,0.0
52603.0,STARLINK-4016,PAYLOAD,2022-10-22 12:42:43,15.08829928,0.0002189999999999,53.2195,59.4785,38.1397,321.975,3.6752e-05,2.97e-06,0.0,0 STARLINK-4016,1 52603U 22052F   22295.52967123  .00000297  00000-0  36752-4 0  9997,2 52603  53.2195  59.4785 0002190  38.1397 321.9750 15.08829928 25347,6917.911,95.438,541.2909999999998,538.261,0.0
52603.0,STARLINK-4016,PAYLOAD,2022-10-22 15:53:29,15.08833678,0.0002205,53.2194,58.8838,38.7938,321.3213,6.942600000000001e-05,8.17e-06,0.0,0 STARLINK-4016,1 52603U 22052F   22295.66214888  .00000817  00000-0  69426-4 0  9997,2 52603  53.2194  58.8838 0002205  38.7938 321.3213 15.08833678 24931,6917.9,95.438,541.29,538.239,0.0
52603.0,STARLINK-4016,PAYLOAD,2022-10-23 03:01:10,15.08851562,0.0002243,53.2194,56.8022,41.0604,319.0557,8.7869e-05,1.111e-05,0.0,0 STARLINK-4016,1 52603U 22052F   22296.12581780  .00001111  00000-0  87869-4 0  9996,2 52603  53.2194  56.8022 0002243  41.0604 319.0557 15.08851562 25009,6917.845,95.437,541.262,538.158,0.0
52603.0,STARLINK-4016,PAYLOAD,2022-10-23 14:08:52,15.0885019,0.000217,53.2194,54.7206,41.7132,318.4026,0.00015814,2.23e-05,0.0,0 STARLINK-4016,1 52603U 22052F   22296.58949538  .00002230  00000-0  15814-3 0  9998,2 52603  53.2194  54.7206 0002170  41.7132 318.4026 15.08850190 25507,6917.849,95.437,541.215,538.2130000000002,0.0
52603.0,STARLINK-4016,PAYLOAD,2022-10-23 15:44:15,15.08846153,0.0002276999999999,53.2197,54.4239,40.5942,319.522,0.00019453,2.81e-05,0.0,0 STARLINK-4016,1 52603U 22052F   22296.65573806  .00002810  00000-0  19453-3 0  9994,2 52603  53.2197  54.4239 0002277  40.5942 319.5220 15.08846153 25510,6917.861999999999,95.437,541.302,538.151,0.0
52603.0,STARLINK-4016,PAYLOAD,2022-10-24 09:13:30,15.08842168,0.0001878,53.2192,51.1507,42.5595,317.5542,0.0001409,1.955e-05,0.0,0 STARLINK-4016,1 52603U 22052F   22297.38437938  .00001955  00000-0  14090-3 0  9991,2 52603  53.2192  51.1507 0001878  42.5595 317.5542 15.08842168 25190,6917.874,95.437,541.038,538.44,0.0
52603.0,STARLINK-4016,PAYLOAD,2022-10-24 13:59:40,15.08826908,0.0002203,53.219,50.2604,42.442,317.6742,-0.00011738,-2.155e-05,0.0,0 STARLINK-4016,1 52603U 22052F   22297.58310894 -.00002155  00000-0 -11738-3 0  9995,2 52603  53.2190  50.2604 0002203  42.4420 317.6742 15.08826908 25226,6917.92,95.438,541.309,538.261,0.0
52603.0,STARLINK-4016,PAYLOAD,2022-10-25 10:39:41,15.0882874,0.0002218,53.2193,46.3949,42.688,317.4284,-0.00016858,-2.969e-05,0.0,0 STARLINK-4016,1 52603U 22052F   22298.44423281 -.00002969  00000-0 -16858-3 0  9997,2 52603  53.2193  46.3949 0002218  42.6880 317.4284 15.08828740 25781,6917.915,95.438,541.314,538.245,0.0
52603.0,STARLINK-4016,PAYLOAD,2022-10-25 13:50:27,15.088361,0.0002435,53.2187,45.8022,37.5856,322.5306,-0.00019978,-3.466e-05,0.0,0 STARLINK-4016,1 52603U 22052F   22298.57670953 -.00003466  00000-0 -19978-3 0  9990,2 52603  53.2187  45.8022 0002435  37.5856 322.5306 15.08836100 25801,6917.892,95.438,541.442,538.073,0.0
52603.0,STARLINK-4016,PAYLOAD,2022-10-26 13:41:14,15.08841447,0.0002274,53.2201,41.341,38.4199,321.6955,2.9114e-05,1.75e-06,0.0,0 STARLINK-4016,1 52603U 22052F   22299.57030940  .00000175  00000-0  29114-4 0  9993,2 52603  53.2201  41.3410 0002274  38.4199 321.6955 15.08841447 25957,6917.876,95.437,541.314,538.168,0.0
52603.0,STARLINK-4016,PAYLOAD,2022-10-27 10:21:15,15.08841086,0.0002303,53.2198,37.4757,35.9939,324.1208,0.00013856,1.918e-05,0.0,0 STARLINK-4016,1 52603U 22052F   22300.43143179  .00001918  00000-0  13856-3 0  9991,2 52603  53.2198  37.4757 0002303  35.9939 324.1208 15.08841086 26082,6917.877,95.437,541.335,538.149,0.0
52603.0,STARLINK-4016,PAYLOAD,2022-10-28 10:12:01,15.0885266,0.0002596,53.2196,33.0157,29.9841,330.1299,0.00010301,1.352e-05,0.0,0 STARLINK-4016,1 52603U 22052F   22301.42501905  .00001352  00000-0  10301-3 0  9990,2 52603  53.2196  33.0157 0002596  29.9841 330.1299 15.08852660 25801,6917.842,95.437,541.503,537.911,0.0
52603.0,STARLINK-4016,PAYLOAD,2022-10-28 13:22:47,15.08852832,0.0002468,53.2197,32.4207,31.2482,328.8657,9.9545e-05,1.297e-05,0.0,0 STARLINK-4016,1 52603U 22052F   22301.55749774  .00001297  00000-0  99545-4 0  9998,2 52603  53.2197  32.4207 0002468  31.2482 328.8657 15.08852832 26259,6917.840999999999,95.437,541.413,537.999,0.0
52603.0,STARLINK-4016,PAYLOAD,2022-10-29 08:27:25,15.08845297,0.0002446,53.2194,28.8524,33.2083,326.9062,5.817899999999999e-05,6.38e-06,0.0,0 STARLINK-4016,1 52603U 22052F   22302.35237870  .00000638  00000-0  58179-4 0  9992,2 52603  53.2194  28.8524 0002446  33.2083 326.9062 15.08845297 26371,6917.864000000001,95.437,541.4209999999998,538.0369999999998,0.0
52603.0,STARLINK-4016,PAYLOAD,2022-10-29 14:48:58,15.08843107,0.0002438,53.2195,27.664,33.5328,326.5818,-7.4851e-06,-4.08e-06,0.0,0 STARLINK-4016,1 52603U 22052F   22302.61733846 -.00000408  00000-0 -74851-5 0  9998,2 52603  53.2195  27.6640 0002438  33.5328 326.5818 15.08843107 25983,6917.871,95.437,541.422,538.049,0.0
52603.0,STARLINK-4016,PAYLOAD,2022-10-30 11:28:59,15.08831839,0.000261,53.2205,23.798,30.9856,329.1289,-9.5183e-05,-1.803e-05,0.0,0 STARLINK-4016,1 52603U 22052F   22303.47847172 -.00001803  00000-0 -95183-4 0  9991,2 52603  53.2205  23.7980 0002610  30.9856 329.1289 15.08831839 26541,6917.905,95.438,541.576,537.965,0.0
52603.0,STARLINK-4016,PAYLOAD,2022-10-31 11:19:46,15.08852118,0.000241,53.2189,19.3374,35.0038,325.1112,0.00067518,0.00010477,0.0,0 STARLINK-4016,1 52603U 22052F   22304.47206095  .00010477  00000-0  67518-3 0  9990,2 52603  53.2189  19.3374 0002410  35.0038 325.1112 15.08852118 26696,6917.843000000003,95.437,541.376,538.0409999999998,0.0
52603.0,STARLINK-4016,PAYLOAD,2022-11-01 00:02:51,15.08844837,0.0002408,53.2193,16.9604,29.1094,331.0032,0.00054498,8.397e-05,0.0,0 STARLINK-4016,1 52603U 22052F   22305.00198502  .00008397  00000-0  54498-3 0  9994,2 52603  53.2193  16.9604 0002408  29.1094 331.0032 15.08844837 26341,6917.866,95.437,541.396,538.065,0.0
52603.0,STARLINK-4016,PAYLOAD,2022-11-01 06:24:24,15.08836035,0.0002355,53.2193,15.7699,28.4267,331.6853,0.00012999,1.781e-05,0.0,0 STARLINK-4016,1 52603U 22052F   22305.26694693  .00001781  00000-0  12999-3 0  9994,2 52603  53.2193  15.7699 0002355  28.4267 331.6853 15.08836035 26389,6917.893,95.438,541.387,538.128,0.0
52603.0,STARLINK-4016,PAYLOAD,2022-11-01 11:10:33,15.08841613,0.0002360999999999,53.2191,14.8767,37.5209,322.5948,0.00025454,3.765e-05,0.0,0 STARLINK-4016,1 52603U 22052F   22305.46566645  .00003765  00000-0  25454-3 0  9995,2 52603  53.2191  14.8767 0002361  37.5209 322.5948 15.08841613 26840,6917.875,95.437,541.374,538.107,0.0
52603.0,STARLINK-4016,PAYLOAD,2022-11-01 23:53:38,15.08849788,0.0002403,53.2194,12.4988,31.4316,328.682,0.00033956,5.121e-05,0.0,0 STARLINK-4016,1 52603U 22052F   22305.99558371  .00005121  00000-0  33956-3 0  9994,2 52603  53.2194  12.4988 0002403  31.4316 328.6820 15.08849788 26499,6917.85,95.437,541.378,538.053,0.0
52603.0,STARLINK-4016,PAYLOAD,2022-11-02 11:01:20,15.0883764,0.0002404,53.2191,10.4171,33.2913,326.823,4.4438e-05,4.19e-06,0.0,0 STARLINK-4016,1 52603U 22052F   22306.45926801  .00000419  00000-0  44438-4 0  9996,2 52603  53.2191  10.4171 0002404  33.2913 326.8230 15.08837640 26569,6917.888000000001,95.438,541.4159999999998,538.09,0.0
52603.0,STARLINK-4016,PAYLOAD,2022-11-03 01:19:49,15.08828762,0.0002337,53.2196,7.7407,29.891,330.2215,-4.072e-06,-3.53e-06,0.0,0 STARLINK-4016,1 52603U 22052F   22307.05543572 -.00000353  00000-0 -40720-5 0  9993,2 52603  53.2196   7.7407 0002337  29.8910 330.2215 15.08828762 26655,6917.915,95.438,541.396,538.163,0.0
52603.0,STARLINK-4016,PAYLOAD,2022-11-03 09:16:44,15.08843186,0.0002313,53.2201,6.254,31.41800000000001,328.695,0.00013957,1.934e-05,0.0,0 STARLINK-4016,1 52603U 22052F   22307.38662637  .00001934  00000-0  13957-3 0  9997,2 52603  53.2201   6.2540 0002313  31.4180 328.6950 15.08843186 26706,6917.871,95.437,541.336,538.136,0.0
52603.0,STARLINK-4016,PAYLOAD,2022-11-03 10:52:07,15.0884646,0.000234,53.22,5.9566,31.764,328.3493,0.00016742,2.378e-05,0.0,0 STARLINK-4016,1 52603U 22052F   22307.45286371  .00002378  00000-0  16742-3 0  9990,2 52603  53.2200   5.9566 0002340  31.7640 328.3493 15.08846460 27149,6917.861,95.437,541.344,538.107,0.0
52603.0,STARLINK-4016,PAYLOAD,2022-11-04 02:45:57,15.08852126,0.0002073,53.2204,2.982,26.8462,333.2638,0.00020691,3.007e-05,0.0,0 STARLINK-4016,1 52603U 22052F   22308.11525291  .00003007  00000-0  20691-3 0  9999,2 52603  53.2204   2.9820 0002073  26.8462 333.2638 15.08852126 26818,6917.843000000003,95.437,541.1419999999998,538.274,0.0
52603.0,STARLINK-4016,PAYLOAD,2022-11-04 10:42:53,15.08848765,0.0002275,53.2202,1.4963,26.8797,333.2313,0.00014203,1.973e-05,0.0,0 STARLINK-4016,1 52603U 22052F   22308.44645329  .00001973  00000-0  14203-3 0  9992,2 52603  53.2202   1.4963 0002275  26.8797 333.2313 15.08848765 27290,6917.854,95.437,541.2919999999998,538.145,0.0
52603.0,STARLINK-4016,PAYLOAD,2022-11-05 02:36:46,15.08836268,0.000212,53.2199,358.5222,33.9383,326.1744,-1.9231e-05,-5.94e-06,0.0,0 STARLINK-4016,1 52603U 22052F   22309.10886627 -.00000594  00000-0 -19231-4 0  9991,2 52603  53.2199 358.5222 0002120  33.9383 326.1744 15.08836268 26965,6917.892,95.438,541.2230000000002,538.29,0.0
